[{"OBJECT_NAME":"W-SERIES 4","OBJECT_ID":"2025-135R","EPOCH":"2026-03-09T19:54:39.716640","MEAN_MOTION":15.01503849,"ECCENTRICITY":0.04025811,"INCLINATION":97.4458,"RA_OF_ASC_NODE":182.1022,"ARG_OF_PERICENTER":65.9998,"MEAN_ANOMALY":298.2822,"EPHEMERIS_TYPE":0,"CLASSIFICATION_TYPE":"U","NORAD_CAT_ID":64543,"ELEMENT_SET_NO":999,"REV_AT_EPOCH":3954,"BSTAR":0.00063083397,"MEAN_MOTION_DOT":0.00052628,"MEAN_MOTION_DDOT":2.148409e-6},{"OBJECT_NAME":"SL-8 DEB","OBJECT_ID":"1984-056C","EPOCH":"2026-03-09T15:32:23.602560","MEAN_MOTION":14.50142976,"ECCENTRICITY":0.00121212,"INCLINATION":74.0657,"RA_OF_ASC_NODE":255.3452,"ARG_OF_PERICENTER":140.4329,"MEAN_ANOMALY":337.081,"EPHEMERIS_TYPE":0,"CLASSIFICATION_TYPE":"U","NORAD_CAT_ID":15033,"ELEMENT_SET_NO":999,"REV_AT_EPOCH":18794,"BSTAR":0.00047985748,"MEAN_MOTION_DOT":1.839e-5,"MEAN_MOTION_DDOT":0}]
